[{"OBJECT_NAME":"COSMOS 2251 DEB","OBJECT_ID":"1993-036APL","EPOCH":"2023-09-15T02:25:54.225120","MEAN_MOTION":13.54034305,"ECCENTRICITY":0.0397273,"INCLINATION":73.8645,"RA_OF_ASC_NODE":52.9354,"ARG_OF_PERICENTER":306.0605,"MEAN_ANOMALY":50.4302,"EPHEMERIS_TYPE":0,"CLASSIFICATION_TYPE":"U","NORAD_CAT_ID":35669,"ELEMENT_SET_NO":999,"REV_AT_EPOCH":49682,"BSTAR":0.00074601,"MEAN_MOTION_DOT":8.11e-6,"MEAN_MOTION_DDOT":0},{"OBJECT_NAME":"COSMOS 2251 DEB","OBJECT_ID":"1993-036APM","EPOCH":"2023-09-15T17:06:21.766752","MEAN_MOTION":14.67899091,"ECCENTRICITY":0.0056548,"INCLINATION":73.9043,"RA_OF_ASC_NODE":250.7582,"ARG_OF_PERICENTER":37.8115,"MEAN_ANOMALY":322.7005,"EPHEMERIS_TYPE":0,"CLASSIFICATION_TYPE":"U","NORAD_CAT_ID":35670,"ELEMENT_SET_NO":999,"REV_AT_EPOCH":75716,"BSTAR":0.0013278,"MEAN_MOTION_DOT":7.754e-5,"MEAN_MOTION_DDOT":0},{"OBJECT_NAME":"COSMOS 2251 DEB","OBJECT_ID":"1993-036APN","EPOCH":"2023-09-15T04:41:20.897664","MEAN_MOTION":14.45971291,"ECCENTRICITY":0.0042239,"INCLINATION":74.0196,"RA_OF_ASC_NODE":173.0527,"ARG_OF_PERICENTER":187.2468,"MEAN_ANOMALY":323.776,"EPHEMERIS_TYPE":0,"CLASSIFICATION_TYPE":"U","NORAD_CAT_ID":35671,"ELEMENT_SET_NO":999,"REV_AT_EPOCH":74907,"BSTAR":0.00028075,"MEAN_MOTION_DOT":9.83e-6,"MEAN_MOTION_DDOT":0},{"OBJECT_NAME":"COSMOS 2251 DEB","OBJECT_ID":"1993-036APP","EPOCH":"2023-09-15T08:04:43.866912","MEAN_MOTION":14.75144531,"ECCENTRICITY":0.0036628,"INCLINATION":74.0573,"RA_OF_ASC_NODE":22.9395,"ARG_OF_PERICENTER":289.0373,"MEAN_ANOMALY":101.7279,"EPHEMERIS_TYPE":0,"CLASSIFICATION_TYPE":"U","NORAD_CAT_ID":35672,"ELEMENT_SET_NO":999,"REV_AT_EPOCH":75584,"BSTAR":0.0030281,"MEAN_MOTION_DOT":0.00020694,"MEAN_MOTION_DDOT":0},{"OBJECT_NAME":"COSMOS 2251 DEB","OBJECT_ID":"1993-036APR","EPOCH":"2023-09-14T11:12:20.092608","MEAN_MOTION":14.39792617,"ECCENTRICITY":0.0121093,"INCLINATION":74.066,"RA_OF_ASC_NODE":47.1085,"ARG_OF_PERICENTER":303.2714,"MEAN_ANOMALY":55.6885,"EPHEMERIS_TYPE":0,"CLASSIFICATION_TYPE":"U","NORAD_CAT_ID":35674,"ELEMENT_SET_NO":999,"REV_AT_EPOCH":74247,"BSTAR":0.0014168,"MEAN_MOTION_DOT":4.818e-5,"MEAN_MOTION_DDOT":0},{"OBJECT_NAME":"COSMOS 2251 DEB","OBJECT_ID":"1993-036APS","EPOCH":"2023-09-15T13:36:58.816224","MEAN_MOTION":14.53415151,"ECCENTRICITY":0.0039787,"INCLINATION":74.014,"RA_OF_ASC_NODE":328.181,"ARG_OF_PERICENTER":223.4644,"MEAN_ANOMALY":136.338,"EPHEMERIS_TYPE":0,"CLASSIFICATION_TYPE":"U","NORAD_CAT_ID":35675,"ELEMENT_SET_NO":999,"REV_AT_EPOCH":74508,"BSTAR":0.0029086,"MEAN_MOTION_DOT":0.00012229,"MEAN_MOTION_DDOT":0},{"OBJECT_NAME":"COSMOS 2251 DEB","OBJECT_ID":"1993-036APT","EPOCH":"2023-09-11T18:10:32.081664","MEAN_MOTION":14.85216629,"ECCENTRICITY":0.0023938,"INCLINATION":74.0037,"RA_OF_ASC_NODE":359.9339,"ARG_OF_PERICENTER":348.2403,"MEAN_ANOMALY":164.599,"EPHEMERIS_TYPE":0,"CLASSIFICATION_TYPE":"U","NORAD_CAT_ID":35676,"ELEMENT_SET_NO":999,"REV_AT_EPOCH":76273,"BSTAR":0.003106,"MEAN_MOTION_DOT":0.00026843,"MEAN_MOTION_DDOT":0},{"OBJECT_NAME":"COSMOS 2251 DEB","OBJECT_ID":"1993-036APU","EPOCH":"2023-09-11T21:19:21.161568","MEAN_MOTION":15.17546168,"ECCENTRICITY":0.0046199,"INCLINATION":73.9991,"RA_OF_ASC_NODE":309.374,"ARG_OF_PERICENTER":270.8785,"MEAN_ANOMALY":88.7118,"EPHEMERIS_TYPE":0,"CLASSIFICATION_TYPE":"U","NORAD_CAT_ID":35699,"ELEMENT_SET_NO":999,"REV_AT_EPOCH":77885,"BSTAR":0.0022635,"MEAN_MOTION_DOT":0.00046972,"MEAN_MOTION_DDOT":0},{"OBJECT_NAME":"COSMOS 2251 DEB","OBJECT_ID":"1993-036APW","EPOCH":"2023-09-14T06:49:24.949920","MEAN_MOTION":13.74541302,"ECCENTRICITY":0.030948,"INCLINATION":74.0087,"RA_OF_ASC_NODE":235.1752,"ARG_OF_PERICENTER":259.5478,"MEAN_ANOMALY":97.0635,"EPHEMERIS_TYPE":0,"CLASSIFICATION_TYPE":"U","NORAD_CAT_ID":35701,"ELEMENT_SET_NO":999,"REV_AT_EPOCH":50858,"BSTAR":0.0020406,"MEAN_MOTION_DOT":2.712e-5,"MEAN_MOTION_DDOT":0},{"OBJECT_NAME":"COSMOS 2251 DEB","OBJECT_ID":"1993-036APX","EPOCH":"2023-09-14T19:42:57.102336","MEAN_MOTION":14.79351884,"ECCENTRICITY":0.0016296,"INCLINATION":74.034,"RA_OF_ASC_NODE":57.5716,"ARG_OF_PERICENTER":341.9782,"MEAN_ANOMALY":18.0814,"EPHEMERIS_TYPE":0,"CLASSIFICATION_TYPE":"U","NORAD_CAT_ID":35702,"ELEMENT_SET_NO":999,"REV_AT_EPOCH":75394,"BSTAR":0.0034348,"MEAN_MOTION_DOT":0.00025713,"MEAN_MOTION_DDOT":0},{"OBJECT_NAME":"COSMOS 2251 DEB","OBJECT_ID":"1993-036APY","EPOCH":"2023-09-13T15:46:47.510112","MEAN_MOTION":14.73325187,"ECCENTRICITY":0.0090234,"INCLINATION":74.0485,"RA_OF_ASC_NODE":222.9781,"ARG_OF_PERICENTER":152.0976,"MEAN_ANOMALY":208.508,"EPHEMERIS_TYPE":0,"CLASSIFICATION_TYPE":"U","NORAD_CAT_ID":35703,"ELEMENT_SET_NO":999,"REV_AT_EPOCH":54457,"BSTAR":0.00091602,"MEAN_MOTION_DOT":6.297e-5,"MEAN_MOTION_DDOT":0},{"OBJECT_NAME":"COSMOS 2251 DEB","OBJECT_ID":"1993-036AQA","EPOCH":"2023-09-13T15:20:16.171584","MEAN_MOTION":14.41296375,"ECCENTRICITY":0.0050124,"INCLINATION":74.2939,"RA_OF_ASC_NODE":226.8349,"ARG_OF_PERICENTER":84.2902,"MEAN_ANOMALY":276.3967,"EPHEMERIS_TYPE":0,"CLASSIFICATION_TYPE":"U","NORAD_CAT_ID":35705,"ELEMENT_SET_NO":999,"REV_AT_EPOCH":73983,"BSTAR":0.0042198,"MEAN_MOTION_DOT":0.00013855,"MEAN_MOTION_DDOT":0},{"OBJECT_NAME":"COSMOS 2251 DEB","OBJECT_ID":"1993-036AQB","EPOCH":"2023-09-15T13:00:12.412512","MEAN_MOTION":13.6193495,"ECCENTRICITY":0.0354244,"INCLINATION":73.893,"RA_OF_ASC_NODE":332.0032,"ARG_OF_PERICENTER":170.6882,"MEAN_ANOMALY":190.104,"EPHEMERIS_TYPE":0,"CLASSIFICATION_TYPE":"U","NORAD_CAT_ID":35706,"ELEMENT_SET_NO":999,"REV_AT_EPOCH":50892,"BSTAR":0.0016411,"MEAN_MOTION_DOT":1.901e-5,"MEAN_MOTION_DDOT":0},{"OBJECT_NAME":"COSMOS 2251 DEB","OBJECT_ID":"1993-036AQE","EPOCH":"2023-08-27T01:06:32.906880","MEAN_MOTION":14.51794631,"ECCENTRICITY":0.0045144,"INCLINATION":74.0032,"RA_OF_ASC_NODE":14.1437,"ARG_OF_PERICENTER":300.9077,"MEAN_ANOMALY":58.7649,"EPHEMERIS_TYPE":0,"CLASSIFICATION_TYPE":"U","NORAD_CAT_ID":35709,"ELEMENT_SET_NO":999,"REV_AT_EPOCH":53694,"BSTAR":0.0027576,"MEAN_MOTION_DOT":0.0001123,"MEAN_MOTION_DDOT":0},{"OBJECT_NAME":"COSMOS 2251 DEB","OBJECT_ID":"1993-036AQG","EPOCH":"2023-09-15T14:22:11.087616","MEAN_MOTION":14.59636293,"ECCENTRICITY":0.009163,"INCLINATION":74.0498,"RA_OF_ASC_NODE":347.1218,"ARG_OF_PERICENTER":298.5653,"MEAN_ANOMALY":60.6312,"EPHEMERIS_TYPE":0,"CLASSIFICATION_TYPE":"U","NORAD_CAT_ID":35711,"ELEMENT_SET_NO":999,"REV_AT_EPOCH":75802,"BSTAR":0.00030897,"MEAN_MOTION_DOT":1.527e-5,"MEAN_MOTION_DDOT":0},{"OBJECT_NAME":"COSMOS 2251 DEB","OBJECT_ID":"1993-036AQM","EPOCH":"2023-09-12T14:06:47.181312","MEAN_MOTION":14.57972399,"ECCENTRICITY":0.0092584,"INCLINATION":73.9961,"RA_OF_ASC_NODE":324.9318,"ARG_OF_PERICENTER":4.487,"MEAN_ANOMALY":63.96,"EPHEMERIS_TYPE":0,"CLASSIFICATION_TYPE":"U","NORAD_CAT_ID":35716,"ELEMENT_SET_NO":999,"REV_AT_EPOCH":75636,"BSTAR":0.00013427,"MEAN_MOTION_DOT":6.21e-6,"MEAN_MOTION_DDOT":0}]
