COSMOS 2251 DEB         
1 35669U 93036APL 23258.10132205  .00000811  00000+0  74601-3 0  9994
2 35669  73.8645  52.9354 0397273 306.0605  50.4302 13.54034305496824
COSMOS 2251 DEB         
1 35670U 93036APM 23258.71275193  .00007754  00000+0  13278-2 0  9992
2 35670  73.9043 250.7582 0056548  37.8115 322.7005 14.67899091757160
COSMOS 2251 DEB         
1 35671U 93036APN 23258.19538076  .00000983  00000+0  28075-3 0  9996
2 35671  74.0196 173.0527 0042239 187.2468 323.7760 14.45971291749070
COSMOS 2251 DEB         
1 35672U 93036APP 23258.33661883  .00020694  00000+0  30281-2 0  9998
2 35672  74.0573  22.9395 0036628 289.0373 101.7279 14.75144531755849
COSMOS 2251 DEB         
1 35674U 93036APR 23257.46689922  .00004818  00000+0  14168-2 0  9993
2 35674  74.0660  47.1085 0121093 303.2714  55.6885 14.39792617742471
COSMOS 2251 DEB         
1 35675U 93036APS 23258.56734741  .00012229  00000+0  29086-2 0  9996
2 35675  74.0140 328.1810 0039787 223.4644 136.3380 14.53415151745084
COSMOS 2251 DEB         
1 35676U 93036APT 23254.75731576  .00026843  00000+0  31060-2 0  9999
2 35676  74.0037 359.9339 0023938 348.2403 164.5990 14.85216629762733
COSMOS 2251 DEB         
1 35699U 93036APU 23254.88843937  .00046972  00000+0  22635-2 0  9996
2 35699  73.9991 309.3740 0046199 270.8785  88.7118 15.17546168778856
COSMOS 2251 DEB         
1 35701U 93036APW 23257.28431655  .00002712  00000+0  20406-2 0  9995
2 35701  74.0087 235.1752 0309480 259.5478  97.0635 13.74541302508589
COSMOS 2251 DEB         
1 35702U 93036APX 23257.82149424  .00025713  00000+0  34348-2 0  9992
2 35702  74.0340  57.5716 0016296 341.9782  18.0814 14.79351884753946
COSMOS 2251 DEB         
1 35703U 93036APY 23256.65749433  .00006297  00000+0  91602-3 0  9992
2 35703  74.0485 222.9781 0090234 152.0976 208.5080 14.73325187544576
COSMOS 2251 DEB         
1 35705U 93036AQA 23256.63907606  .00013855  00000+0  42198-2 0  9993
2 35705  74.2939 226.8349 0050124  84.2902 276.3967 14.41296375739839
COSMOS 2251 DEB         
1 35706U 93036AQB 23258.54181033  .00001901  00000+0  16411-2 0  9992
2 35706  73.8930 332.0032 0354244 170.6882 190.1040 13.61934950508920
COSMOS 2251 DEB         
1 35709U 93036AQE 23239.04621420  .00011230  00000+0  27576-2 0  9998
2 35709  74.0032  14.1437 0045144 300.9077  58.7649 14.51794631536943
COSMOS 2251 DEB         
1 35711U 93036AQG 23258.59873944  .00001527  00000+0  30897-3 0  9991
2 35711  74.0498 347.1218 0091630 298.5653  60.6312 14.59636293758022
COSMOS 2251 DEB         
1 35716U 93036AQM 23255.58804608  .00000621  00000+0  13427-3 0  9997
2 35716  73.9961 324.9318 0092584   4.4870  63.9600 14.57972399756367
